ONEWEB-0620             
1 55161U 23004X   25334.76662061  .00000424  00000+0  11612-2 0  9990
2 55161  87.8859  60.5969 0001560  97.2478 262.8828 13.11418295139823
ONEWEB-0621             
1 55162U 23004Y   25334.71743926 -.00000227  00000+0 -67708-3 0  9997
2 55162  87.8873  60.5764 0001653 111.9100 248.2203 13.11415957139795
ONEWEB-0622             
1 55163U 23004Z   25334.72252315 -.00000413  00000+0 -12015-2 0  9993
2 55163  87.8864  60.5855 0000947 117.0763 243.0462 13.11413581139784
ONEWEB-0623             
1 55164U 23004AA  25334.74882519 -.00000100  00000+0 -29075-3 0  9999
2 55164  87.9122  45.3453 0001397 127.9397 232.1861 13.17650765141453
ONEWEB-0624             
1 55165U 23004AB  25334.59369444  .00000107  00000+0  26128-3 0  9991
2 55165  87.8946  30.0780 0001560 108.6395 251.4903 13.12921112142013
ONEWEB-0625             
1 55166U 23004AC  25334.73869188 -.00000093  00000+0 -27393-3 0  9999
2 55166  87.9121  45.3424 0001917 102.2404 257.8942 13.17651316141441
ONEWEB-0626             
1 55167U 23004AD  25334.72857014  .00000010  00000+0 -74931-5 0  9994
2 55167  87.9122  45.3443 0001731  84.3807 275.7522 13.17647817141449
ONEWEB-0627             
1 55168U 23004AE  25334.71675737  .00000000  00000+0 -32385-4 0  9999
2 55168  87.9121  45.3471 0001310 116.6691 243.4575 13.17648529141444
